{
  "norad_id": 62633,
  "name": "FLOCK 4G-26",
  "history": [
    {
      "epoch": "2026-03-28T22:24:11.094336Z",
      "apogee_km": 484.73738011735804,
      "perigee_km": 480.5699986368163,
      "latitude_deg": -7.46212699763224e-05,
      "longitude_deg": 7.993285429207583,
      "height_km": 487.69661482817446,
      "semi_major_axis_km": 6860.790689377087,
      "eccentricity": 0.00030371,
      "inclination_deg": 97.404,
      "raan_deg": 170.3863,
      "arg_perigee_deg": 201.3957,
      "mean_anomaly_deg": 158.7155,
      "mean_motion_rev_day": 15.2771206
    },
    {
      "epoch": "2026-03-29T04:41:27.627360Z",
      "apogee_km": 484.709222201177,
      "perigee_km": 480.5310211140877,
      "latitude_deg": 4.344548937919699e-06,
      "longitude_deg": -86.32364824046276,
      "height_km": 487.676201612033,
      "semi_major_axis_km": 6860.7571216576325,
      "eccentricity": 0.0003045,
      "inclination_deg": 97.404,
      "raan_deg": 170.6465,
      "arg_perigee_deg": 200.7747,
      "mean_anomaly_deg": 159.3369,
      "mean_motion_rev_day": 15.27723272
    },
    {
      "epoch": "2026-03-30T04:16:13.641024Z",
      "apogee_km": 484.6835749952879,
      "perigee_km": 480.3833067629439,
      "latitude_deg": 1.842166008208115e-05,
      "longitude_deg": -80.0079465748141,
      "height_km": 487.6811140588538,
      "semi_major_axis_km": 6860.670440879116,
      "eccentricity": 0.0003134,
      "inclination_deg": 97.4041,
      "raan_deg": 171.6223,
      "arg_perigee_deg": 197.9947,
      "mean_anomaly_deg": 162.1182,
      "mean_motion_rev_day": 15.27752225
    },
    {
      "epoch": "2026-03-30T12:07:48.560160Z",
      "apogee_km": 484.66033438437626,
      "perigee_km": 480.33662469246156,
      "latitude_deg": 4.437437240947145e-05,
      "longitude_deg": 162.0989676503014,
      "height_km": 487.6727638550886,
      "semi_major_axis_km": 6860.635479538419,
      "eccentricity": 0.00031511,
      "inclination_deg": 97.4041,
      "raan_deg": 171.9475,
      "arg_perigee_deg": 196.6102,
      "mean_anomaly_deg": 163.5035,
      "mean_motion_rev_day": 15.27763903
    },
    {
      "epoch": "2026-03-30T18:25:04.350144Z",
      "apogee_km": 484.64722347871066,
      "perigee_km": 480.2947165703681,
      "latitude_deg": 6.087171124528518e-05,
      "longitude_deg": 67.78514675951371,
      "height_km": 487.6702338391408,
      "semi_major_axis_km": 6860.607970024539,
      "eccentricity": 0.00031721,
      "inclination_deg": 97.404,
      "raan_deg": 172.2077,
      "arg_perigee_deg": 195.5423,
      "mean_anomaly_deg": 164.572,
      "mean_motion_rev_day": 15.27773092
    },
    {
      "epoch": "2026-03-31T11:42:32.103648Z",
      "apogee_km": 484.63087824719787,
      "perigee_km": 480.18126722108445,
      "latitude_deg": -1.9117420938724007e-06,
      "longitude_deg": 168.4248983385125,
      "height_km": 487.67741250910956,
      "semi_major_axis_km": 6860.543072734141,
      "eccentricity": 0.00032429,
      "inclination_deg": 97.404,
      "raan_deg": 172.9232,
      "arg_perigee_deg": 192.8748,
      "mean_anomaly_deg": 167.2409,
      "mean_motion_rev_day": 15.2779477
    },
    {
      "epoch": "2026-04-01T11:17:14.200800Z",
      "apogee_km": 484.64033041546463,
      "perigee_km": 480.0396945309003,
      "latitude_deg": 4.213610564202165e-06,
      "longitude_deg": 174.75706519551636,
      "height_km": 487.71156837071794,
      "semi_major_axis_km": 6860.477012473182,
      "eccentricity": 0.0003353,
      "inclination_deg": 97.404,
      "raan_deg": 173.8991,
      "arg_perigee_deg": 189.4229,
      "mean_anomaly_deg": 170.6948,
      "mean_motion_rev_day": 15.27816837
    },
    {
      "epoch": "2026-04-02T04:34:40.231488Z",
      "apogee_km": 484.61137707347007,
      "perigee_km": 479.9277775031551,
      "latitude_deg": 4.911492492816961e-05,
      "longitude_deg": -84.59589925517241,
      "height_km": 487.694790792795,
      "semi_major_axis_km": 6860.406577288312,
      "eccentricity": 0.00034135,
      "inclination_deg": 97.4038,
      "raan_deg": 174.6147,
      "arg_perigee_deg": 187.2533,
      "mean_anomaly_deg": 172.8658,
      "mean_motion_rev_day": 15.27840366
    },
    {
      "epoch": "2026-04-03T18:18:05.818176Z",
      "apogee_km": 484.5012419698869,
      "perigee_km": 479.65930061980725,
      "latitude_deg": -1.6884464063603788e-05,
      "longitude_deg": 69.55943823047497,
      "height_km": 487.601252257706,
      "semi_major_axis_km": 6860.217271294847,
      "eccentricity": 0.0003529,
      "inclination_deg": 97.4034,
      "raan_deg": 176.1759,
      "arg_perigee_deg": 182.2381,
      "mean_anomaly_deg": 177.8843,
      "mean_motion_rev_day": 15.27903607
    },
    {
      "epoch": "2026-04-04T19:26:59.683200Z",
      "apogee_km": 484.45098119823433,
      "perigee_km": 479.485636975518,
      "latitude_deg": 3.4071609466764547e-06,
      "longitude_deg": 52.34299340924447,
      "height_km": 487.5525471803848,
      "semi_major_axis_km": 6860.105309086876,
      "eccentricity": 0.0003619,
      "inclination_deg": 97.4029,
      "raan_deg": 177.2167,
      "arg_perigee_deg": 179.4528,
      "mean_anomaly_deg": 180.6716,
      "mean_motion_rev_day": 15.27941012
    },
    {
      "epoch": "2026-04-05T04:52:49.378656Z",
      "apogee_km": 484.4292609257009,
      "perigee_km": 479.43622776297707,
      "latitude_deg": 7.951639428339996e-05,
      "longitude_deg": -89.11117704957712,
      "height_km": 487.5299597406952,
      "semi_major_axis_km": 6860.069744344339,
      "eccentricity": 0.00036392,
      "inclination_deg": 97.4028,
      "raan_deg": 177.6069,
      "arg_perigee_deg": 178.463,
      "mean_anomaly_deg": 181.6622,
      "mean_motion_rev_day": 15.27952894
    },
    {
      "epoch": "2026-04-05T15:52:57.136224Z",
      "apogee_km": 484.41708221255885,
      "perigee_km": 479.38181545911266,
      "latitude_deg": -9.827225320142014e-06,
      "longitude_deg": 105.86006802799,
      "height_km": 487.5160208305674,
      "semi_major_axis_km": 6860.0364488358355,
      "eccentricity": 0.000367,
      "inclination_deg": 97.4027,
      "raan_deg": 178.0623,
      "arg_perigee_deg": 177.4013,
      "mean_anomaly_deg": 182.7246,
      "mean_motion_rev_day": 15.27964018
    },
    {
      "epoch": "2026-04-06T04:27:22.750272Z",
      "apogee_km": 484.40705166994485,
      "perigee_km": 479.31007496639904,
      "latitude_deg": -2.3745606355617054e-05,
      "longitude_deg": -82.74254330484115,
      "height_km": 487.5016024943944,
      "semi_major_axis_km": 6859.995563318172,
      "eccentricity": 0.0003715,
      "inclination_deg": 97.4025,
      "raan_deg": 178.5828,
      "arg_perigee_deg": 175.7985,
      "mean_anomaly_deg": 184.3286,
      "mean_motion_rev_day": 15.27977678
    },
    {
      "epoch": "2026-04-07T04:01:54.727392Z",
      "apogee_km": 484.3733065375918,
      "perigee_km": 479.1922835132,
      "latitude_deg": -2.520523994577142e-07,
      "longitude_deg": -76.36840025514813,
      "height_km": 487.4542585010529,
      "semi_major_axis_km": 6859.919795025396,
      "eccentricity": 0.00037763,
      "inclination_deg": 97.4021,
      "raan_deg": 179.5584,
      "arg_perigee_deg": 172.8415,
      "mean_anomaly_deg": 187.2879,
      "mean_motion_rev_day": 15.28002993
    },
    {
      "epoch": "2026-04-07T18:10:37.331328Z",
      "apogee_km": 484.37861070935924,
      "perigee_km": 479.12256483960664,
      "latitude_deg": -5.773589870643084e-05,
      "longitude_deg": 71.45876764571435,
      "height_km": 487.4464440642494,
      "semi_major_axis_km": 6859.887587774482,
      "eccentricity": 0.0003831,
      "inclination_deg": 97.4021,
      "raan_deg": 180.144,
      "arg_perigee_deg": 170.893,
      "mean_anomaly_deg": 189.2379,
      "mean_motion_rev_day": 15.28013754
    }
  ]
}